IRIDIUM 921             
1 24873U 97034E   24126.57202813  .00025257  00000+0  71151-3 0  9998
2 24873  86.3787 309.1790 0005090  70.8560 289.3242 15.36303301468636
IRIDIUM 26              
1 24903U 97043A   24126.90341449  .00000619  00000+0  20523-3 0  9990
2 24903  86.3916 281.5035 0002140  86.9526 273.1915 14.36322972398265
IRIDIUM 22              
1 24907U 97043E   24126.92638529  .00000620  00000+0  20996-3 0  9990
2 24907  86.3918 284.6998 0002124  92.9493 267.1947 14.35213426398344
DUMMY MASS 1            
1 24925U 97048A   24126.57336390  .00000629  00000+0  68508-4 0  9998
2 24925  86.3321 323.6928 0008255 136.4765 223.7112 14.86170504444570
DUMMY MASS 2            
1 24926U 97048B   24126.93977499  .00000590  00000+0  64465-4 0  9995
2 24926  86.3323 325.0592 0008701 145.9709 214.2075 14.85929328444416
IRIDIUM 29              
1 24944U 97051A   24126.94244418  .00000547  00000+0  18286-3 0  9999
2 24944  86.3921 314.6283 0002292  95.1666 264.9792 14.35664697394825
IRIDIUM 33              
1 24946U 97051C   24126.92969761  .00000395  00000+0  13375-3 0  9999
2 24946  86.3837 313.8877 0007000 342.9785  17.1175 14.34333789394355
IRIDIUM 28              
1 24948U 97051E   24126.90468065  .00000579  00000+0  19034-3 0  9992
2 24948  86.3926 312.3918 0002072  78.7788 281.3641 14.36614948395352
